STARLINK-31504          
1 59303U 24056H   26068.43212827  .00000271  00000+0  19372-4 0  9993
2 59303  43.0012 232.2747 0001224 274.4841  85.5871 15.27566705111111
2025-155V               
1 64895U 25155V   26068.85787115  .00013705  00000+0  51002-3 0  9990
2 64895  97.4485  37.2490 0008035 152.8264 207.3397 15.27583301 65579
